[{"OBJECT_NAME":"HAWK-2A","OBJECT_ID":"2021-006CW","EPOCH":"2026-03-09T16:18:25.817472","MEAN_MOTION":15.33304498,"ECCENTRICITY":0.00064498,"INCLINATION":97.2459,"RA_OF_ASC_NODE":115.6184,"ARG_OF_PERICENTER":187.1463,"MEAN_ANOMALY":172.9689,"EPHEMERIS_TYPE":0,"CLASSIFICATION_TYPE":"U","NORAD_CAT_ID":47505,"ELEMENT_SET_NO":999,"REV_AT_EPOCH":28424,"BSTAR":0.0002543136,"MEAN_MOTION_DOT":8.113e-5,"MEAN_MOTION_DDOT":0},{"OBJECT_NAME":"YAOGAN-43 01A","OBJECT_ID":"2024-148A","EPOCH":"2026-03-10T00:09:07.136640","MEAN_MOTION":15.32738016,"ECCENTRICITY":0.00034906,"INCLINATION":35.0055,"RA_OF_ASC_NODE":53.2215,"ARG_OF_PERICENTER":348.6469,"MEAN_ANOMALY":11.4169,"EPHEMERIS_TYPE":0,"CLASSIFICATION_TYPE":"U","NORAD_CAT_ID":60458,"ELEMENT_SET_NO":999,"REV_AT_EPOCH":8720,"BSTAR":0.00060147276,"MEAN_MOTION_DOT":0.00019533,"MEAN_MOTION_DDOT":0}]
